FLOCK 4S-17             
1 47492U 21006CH  22317.41140700  .00014714  00000+0  70075-3 0  9995
2 47492  97.4309  14.3106 0010591 116.9036 243.3282 15.19189063 99855
FLOCK 4S-3              
1 47494U 21006CK  22317.10827799  .00021081  00000+0  10580-2 0  9992
2 47494  97.4183  12.3719 0010386 118.9762 241.2514 15.17284550 99765
FLOCK 4S-27             
1 47495U 21006CL  22317.47290080  .00015158  00000+0  72210-3 0  9997
2 47495  97.4179  13.3727 0010999 116.3377 243.8989 15.19166964 99860
FLOCK 4S-18             
1 47496U 21006CM  22317.14258074  .00016494  00000+0  78755-3 0  9993
2 47496  97.4286  13.9449 0010700 118.0159 242.2160 15.19071558 99817
FLOCK 4S-26             
1 47497U 21006CN  22317.13619207  .00015353  00000+0  64521-3 0  9991
2 47497  97.4166  14.1071 0009158 111.6611 248.5603 15.23479144 99882
FLOCK 4S-2              
1 47498U 21006CP  22317.39370346  .00023664  00000+0  11004-2 0  9999
2 47498  97.4187  13.3817 0009766 115.8835 244.3408 15.19920007 99852
FLOCK 4S-40             
1 47499U 21006CQ  22317.15003565  .00010875  00000+0  52153-3 0  9991
2 47499  97.4299  13.9304 0011201 119.1500 241.0856 15.19015910 99812
FLOCK 4S-19             
1 47500U 21006CR  22317.13222688  .00016592  00000+0  78754-3 0  9998
2 47500  97.4285  13.9377 0011149 115.7048 244.5339 15.19271558 99816
FLOCK 4S-28             
1 47514U 21006DE  22317.15486949  .00017198  00000+0  82218-3 0  9990
2 47514  97.4182  12.8445 0008617 124.9297 235.2748 15.19036899100760
FLOCK 4S-5              
1 47515U 21006DF  22317.15259796  .00016858  00000+0  80498-3 0  9999
2 47515  97.4172  12.7899 0008884 125.3681 234.8385 15.19080810 99806
FLOCK 4S-16             
1 47516U 21006DG  22317.16438171  .00008551  00000+0  41048-3 0  9996
2 47516  97.4288  13.8027 0008833 125.0825 235.1239 15.19072664100769
FLOCK 4S-6              
1 47518U 21006DJ  22317.16581341  .00010092  00000+0  48290-3 0  9995
2 47518  97.4192  12.8816 0008574 128.0257 232.1753 15.19135682100773
FLOCK 4S-29             
1 47520U 21006DL  22317.35800703  .00016362  00000+0  78242-3 0  9991
2 47520  97.4192  13.1344 0008425 125.4677 234.7345 15.19041776 99837
FLOCK 4S-15             
1 47521U 21006DM  22317.11472590  .00021277  00000+0  10689-2 0  9996
2 47521  97.4303  13.2473 0008320 132.6702 227.5234 15.17264678100734
FLOCK 4S-37             
1 47522U 21006DN  22317.16979927  .00011665  00000+0  55829-3 0  9994
2 47522  97.4279  13.6772 0008301 126.6319 233.5680 15.19092187100771
FLOCK 4S-10             
1 47523U 21006DP  22317.47068669  .00016756  00000+0  79791-3 0  9991
2 47523  97.4214  13.3279 0008345 130.2912 229.9054 15.19182435 99843
FLOCK 4S-7              
1 47527U 21006DT  22317.10726302  .00017142  00000+0  81272-3 0  9997
2 47527  97.4180  12.8101 0008432 127.5597 232.6405 15.19328677100756
FLOCK 4S-14             
1 47528U 21006DU  22317.11324292  .00017610  00000+0  83789-3 0  9996
2 47528  97.4281  13.6256 0008376 127.9633 232.2359 15.19199322100758
FLOCK 4S-36             
1 47530U 21006DW  22317.37812310  .00015311  00000+0  72919-3 0  9999
2 47530  97.4268  13.7996 0008046 125.6106 234.5879 15.19199467100798
FLOCK 4S-24             
1 47539U 21006DZ  22317.11772495  .00017510  00000+0  83065-3 0  9996
2 47539  97.4216  13.3868 0011562 114.2108 246.0336 15.19274802 99810
FLOCK 4S-20             
1 47540U 21006EA  22317.11757390  .00017845  00000+0  84565-3 0  9992
2 47540  97.4274  13.8586 0010796 114.5306 245.7056 15.19316326 98888
FLOCK 4S-25             
1 47542U 21006EC  22317.38798427  .00016088  00000+0  76322-3 0  9999
2 47542  97.4194  13.4588 0011076 115.4545 244.7837 15.19297042 98920
FLOCK 4S-1              
1 47543U 21006ED  22317.12311608  .00011203  00000+0  53306-3 0  9995
2 47543  97.4195  13.1924 0010773 112.2717 247.9661 15.19284507 98889
FLOCK 4S-30             
1 47544U 21006EE  22317.16928156  .00017893  00000+0  85127-3 0  9999
2 47544  97.4195  12.9804 0008100 125.2526 234.9467 15.19201228100767
FLOCK 4S-23             
1 47545U 21006EF  22317.16509639  .00021815  00000+0  10338-2 0  9991
2 47545  97.4228  13.5679 0011257 115.7383 244.5015 15.19268383100798
FLOCK 4S-42             
1 47612U 21006EQ  22317.42341677  .00006560  00000+0  31504-3 0  9990
2 47612  97.4255  13.8974 0011177 125.8034 234.4241 15.19126885 99853
FLOCK 4S-48             
1 47617U 21006EJ  22317.13725128  .00009873  00000+0  47127-3 0  9998
2 47617  97.4240  13.7190 0012173 108.4709 251.7849 15.19192329100792
FLOCK 4S-46             
1 47684U 21006EK  22317.14970830  .00006649  00000+0  31856-3 0  9995
2 47684  97.4245  13.6757 0008004 135.7752 224.4123 15.19230851 99824
FLOCK 4S-47             
1 47685U 21006EL  22317.14682227  .00022007  00000+0  10463-2 0  9992
2 47685  97.4218  13.1003 0007353 129.7806 230.4077 15.19185858100760
FLOCK 4S-44             
1 47686U 21006EM  22317.39891734  .00006216  00000+0  29903-3 0  9999
2 47686  97.4262  14.0024 0012006 122.7814 237.4579 15.19082508 99855
FLOCK 4S-43             
1 47687U 21006EN  22317.38468999  .00011146  00000+0  53147-3 0  9997
2 47687  97.4231  13.5044 0007489 116.7110 243.4892 15.19238555100807
FLOCK 4S-45             
1 47688U 21006EP  22317.13249290  .00016913  00000+0  80439-3 0  9993
2 47688  97.4245  13.1965 0011211 109.3345 250.9103 15.19197460100758
FLOCK 4S-41             
1 47698U 21006ER  22317.42287598  .00017377  00000+0  83028-3 0  9991
2 47698  97.4298  14.1173 0010482 119.0207 241.2079 15.19039486 99848
FLOCK 4X-8              
1 50992U 22002J   22317.18301562  .00006439  00000+0  31929-3 0  9990
2 50992  97.4710  22.3110 0009519 277.5271  82.4882 15.18039385 45968
FLOCK 4X-44             
1 50994U 22002L   22317.18933500  .00007457  00000+0  36914-3 0  9995
2 50994  97.4731  22.3884 0009542 276.7450  83.2698 15.18041875 45968
FLOCK 4X-2              
1 50996U 22002N   22317.18761900  .00007245  00000+0  35808-3 0  9996
2 50996  97.4720  22.3534 0009412 276.8551  83.1611 15.18106608 45969
FLOCK 4X-20             
1 50997U 22002P   22317.18461580  .00009590  00000+0  47355-3 0  9993
2 50997  97.4716  22.3481 0009402 278.5012  81.5156 15.18051404 45965
FLOCK 4X-30             
1 51000U 22002S   22317.25147495  .00009068  00000+0  44716-3 0  9991
2 51000  97.4670  22.1976 0009243 267.4736  92.5440 15.18114867 45972
FLOCK 4X-22             
1 51003U 22002V   22317.18143886  .00010881  00000+0  53649-3 0  9996
2 51003  97.4711  22.2913 0009512 279.8422  80.1737 15.18068275 45963
FLOCK 4X-5              
1 51004U 22002W   22317.17935298  .00006609  00000+0  32724-3 0  9996
2 51004  97.4679  22.1840 0009776 269.9077  90.1036 15.18074123 45965
FLOCK 4X-41             
1 51005U 22002X   22317.17775161  .00006461  00000+0  31995-3 0  9993
2 51005  97.4661  22.1175 0009323 265.5924  94.4244 15.18081804 45961
FLOCK 4X-3              
1 51006U 22002Y   22317.17671574  .00006557  00000+0  32493-3 0  9997
2 51006  97.4720  22.3536 0010022 274.6852  85.3237 15.18049939 45964
FLOCK 4X-18             
1 51007U 22002Z   22317.37260524  .00006003  00000+0  29787-3 0  9997
2 51007  97.4682  22.3973 0010082 269.0700  90.9378 15.18038998 45997
FLOCK 4X-37             
1 51009U 22002AB  22317.43734863  .00006899  00000+0  34159-3 0  9990
2 51009  97.4726  22.6520 0010347 273.1180  86.8870 15.18054577 46006
FLOCK 4X-15             
1 51010U 22002AC  22317.16719487  .00006661  00000+0  32929-3 0  9997
2 51010  97.4729  22.4167 0010362 272.2518  87.7529 15.18122583 45966
FLOCK 4X-29             
1 51011U 22002AD  22317.17167428  .00006393  00000+0  31709-3 0  9998
2 51011  97.4678  22.1827 0010033 268.3933  91.6152 15.18027529 45962
FLOCK 4X-27             
1 51012U 22002AE  22317.17038662  .00012062  00000+0  59422-3 0  9998
2 51012  97.4717  22.3439 0008928 272.0792  87.9420 15.18074565 45961
FLOCK 4X-12             
1 51015U 22002AH  22317.42796561  .00005972  00000+0  29598-3 0  9991
2 51015  97.4713  22.6204 0010629 269.4928  90.5088 15.18075812 46007
FLOCK 4X-25             
1 51016U 22002AJ  22317.16893495  .00008466  00000+0  41846-3 0  9998
2 51016  97.4701  22.2924 0010400 280.8153  79.1910 15.18045316 45961
FLOCK 4X-1              
1 51017U 22002AK  22317.42611065  .00007698  00000+0  38131-3 0  9998
2 51017  97.4685  22.4823 0010602 268.8283  91.1736 15.18000325 46004
FLOCK 4X-42             
1 51018U 22002AL  22317.16524715  .00006228  00000+0  30892-3 0  9999
2 51018  97.4665  22.1580 0010312 264.6599  95.3458 15.18033635 45963
FLOCK 4X-16             
1 51020U 22002AN  22317.42444381  .00017146  00000+0  84222-3 0  9998
2 51020  97.4669  22.4359 0010458 264.7528  95.2513 15.18081121 46001
FLOCK 4X-38             
1 51023U 22002AR  22317.42316180  .00006532  00000+0  32337-3 0  9993
2 51023  97.4717  22.6456 0010694 271.8162  88.1847 15.18079267 46002
FLOCK 4X-32             
1 51024U 22002AS  22317.15823331  .00006415  00000+0  31844-3 0  9997
2 51024  97.4728  22.4027 0010741 269.3708  90.6295 15.17993785 45966
FLOCK 4X-26             
1 51026U 22002AU  22317.41839420  .00007620  00000+0  37767-3 0  9993
2 51026  97.4684  22.4992 0010526 269.6114  90.3913 15.17984990 46003
FLOCK 4X-43             
1 51027U 22002AV  22317.41954623  .00006771  00000+0  33509-3 0  9993
2 51027  97.4679  22.4806 0010439 266.9748  93.0291 15.18078908 46001
FLOCK 4X-13             
1 51028U 22002AW  22317.15295849  .00006356  00000+0  31522-3 0  9995
2 51028  97.4676  22.2185 0010560 266.2187  93.7840 15.18027054 45969
FLOCK 4X-39             
1 51029U 22002AX  22317.14691721  .00016703  00000+0  82035-3 0  9996
2 51029  97.4676  22.2296 0010357 264.4431  95.5622 15.18092611 45968
FLOCK 4X-17             
1 51035U 22002BD  22317.14981962  .00006402  00000+0  31723-3 0  9995
2 51035  97.4711  22.2207 0006788 278.2534  81.7930 15.18085020 45951
FLOCK 4X-10             
1 51037U 22002BF  22317.19119053  .00017786  00000+0  87361-3 0  9992
2 51037  97.4775  22.3808 0009398 276.6875  83.3289 15.18084331 45961
